{
  "type": "FeatureCollection",
  "features": [
    {
      "type": "Feature",
      "properties": {
        "name": "Cushitic Cuisine",
        "cuisine": "Ethiopian",
        "featured": "yes"
      },
      "geometry": {
        "type": "Point",
        "coordinates": [-122.234, 47.380]
      }
    },
    {
      "type": "Feature",
      "properties": {
        "name": "Medina Cafe and Grill",
        "cuisine": "Somali",
        "featured": "yes"
      },
      "geometry": {
        "type": "Point",
        "coordinates": [-122.235, 47.388]
      }
    },
    {
      "type": "Feature",
      "properties": {
        "name": "Juba Restaurant",
        "cuisine": "Somali",
        "featured": "no"
      },
      "geometry": {
        "type": "Point",
        "coordinates": [-122.236, 47.386]
      }
    },
    {
      "type": "Feature",
      "properties": {
        "name": "Hong Kong Market",
        "cuisine": "Asian Grocery",
        "featured": "no"
      },
      "geometry": {
        "type": "Point",
        "coordinates": [-122.240, 47.390]
      }
    },
    {
      "type": "Feature",
      "properties": {
        "name": "El Rinconsito",
        "cuisine": "Mexican",
        "featured": "no"
      },
      "geometry": {
        "type": "Point",
        "coordinates": [-122.238, 47.385]
      }
    },
    {
      "type": "Feature",
      "properties": {
        "name": "Pho Bac Kent",
        "cuisine": "Vietnamese",
        "featured": "no"
      },
      "geometry": {
        "type": "Point",
        "coordinates": [-122.239, 47.387]
      }
    }
  ]
}
